[{"OBJECT_NAME":"STARLINK-36644","OBJECT_ID":"2026-033A","EPOCH":"2026-03-17T14:00:01.999872","MEAN_MOTION":15.56464434,"ECCENTRICITY":0.0001458,"INCLINATION":42.9991,"RA_OF_ASC_NODE":223.8508,"ARG_OF_PERICENTER":278.3179,"MEAN_ANOMALY":145.7739,"EPHEMERIS_TYPE":0,"CLASSIFICATION_TYPE":"U","NORAD_CAT_ID":67821,"ELEMENT_SET_NO":999,"REV_AT_EPOCH":593,"BSTAR":-0.029832125,"MEAN_MOTION_DOT":-0.0191247,"MEAN_MOTION_DDOT":0},{"OBJECT_NAME":"STARLINK-36643","OBJECT_ID":"2026-033B","EPOCH":"2026-03-17T14:00:01.999872","MEAN_MOTION":15.51884732,"ECCENTRICITY":0.00015063,"INCLINATION":42.9997,"RA_OF_ASC_NODE":224.1121,"ARG_OF_PERICENTER":252.4062,"MEAN_ANOMALY":65.8171,"EPHEMERIS_TYPE":0,"CLASSIFICATION_TYPE":"U","NORAD_CAT_ID":67822,"ELEMENT_SET_NO":999,"REV_AT_EPOCH":593,"BSTAR":-0.034634288,"MEAN_MOTION_DOT":-0.01912592,"MEAN_MOTION_DDOT":0},{"OBJECT_NAME":"STARLINK-36646","OBJECT_ID":"2026-033C","EPOCH":"2026-03-17T14:00:01.999872","MEAN_MOTION":15.5491655,"ECCENTRICITY":0.00015298,"INCLINATION":42.9997,"RA_OF_ASC_NODE":223.9156,"ARG_OF_PERICENTER":277.6561,"MEAN_ANOMALY":119.8798,"EPHEMERIS_TYPE":0,"CLASSIFICATION_TYPE":"U","NORAD_CAT_ID":67823,"ELEMENT_SET_NO":999,"REV_AT_EPOCH":593,"BSTAR":-0.031589415,"MEAN_MOTION_DOT":-0.01911382,"MEAN_MOTION_DDOT":0},{"OBJECT_NAME":"STARLINK-36647","OBJECT_ID":"2026-033D","EPOCH":"2026-03-17T14:00:01.999872","MEAN_MOTION":15.53009919,"ECCENTRICITY":0.00014955,"INCLINATION":43.0001,"RA_OF_ASC_NODE":224.0191,"ARG_OF_PERICENTER":259.078,"MEAN_ANOMALY":97.2969,"EPHEMERIS_TYPE":0,"CLASSIFICATION_TYPE":"U","NORAD_CAT_ID":67824,"ELEMENT_SET_NO":999,"REV_AT_EPOCH":593,"BSTAR":-0.032261215,"MEAN_MOTION_DOT":-0.01829904,"MEAN_MOTION_DDOT":0},{"OBJECT_NAME":"STARLINK-36648","OBJECT_ID":"2026-033E","EPOCH":"2026-03-17T14:00:01.999872","MEAN_MOTION":15.63439023,"ECCENTRICITY":0.00010875,"INCLINATION":42.9996,"RA_OF_ASC_NODE":223.4783,"ARG_OF_PERICENTER":272.3971,"MEAN_ANOMALY":301.3504,"EPHEMERIS_TYPE":0,"CLASSIFICATION_TYPE":"U","NORAD_CAT_ID":67825,"ELEMENT_SET_NO":999,"REV_AT_EPOCH":593,"BSTAR":-0.022782791,"MEAN_MOTION_DOT":-0.01912853,"MEAN_MOTION_DDOT":0},{"OBJECT_NAME":"STARLINK-35865","OBJECT_ID":"2026-033F","EPOCH":"2026-03-17T14:00:01.999872","MEAN_MOTION":15.56921582,"ECCENTRICITY":0.00016268,"INCLINATION":42.9994,"RA_OF_ASC_NODE":223.7715,"ARG_OF_PERICENTER":279.0967,"MEAN_ANOMALY":176.3998,"EPHEMERIS_TYPE":0,"CLASSIFICATION_TYPE":"U","NORAD_CAT_ID":67826,"ELEMENT_SET_NO":999,"REV_AT_EPOCH":593,"BSTAR":-0.029266045,"MEAN_MOTION_DOT":-0.01909347,"MEAN_MOTION_DDOT":0},{"OBJECT_NAME":"STARLINK-36289","OBJECT_ID":"2026-033G","EPOCH":"2026-03-17T14:00:01.999872","MEAN_MOTION":15.52711444,"ECCENTRICITY":0.00015213,"INCLINATION":43,"RA_OF_ASC_NODE":224.0123,"ARG_OF_PERICENTER":278.8016,"MEAN_ANOMALY":79.6714,"EPHEMERIS_TYPE":0,"CLASSIFICATION_TYPE":"U","NORAD_CAT_ID":67827,"ELEMENT_SET_NO":999,"REV_AT_EPOCH":593,"BSTAR":-0.037135769,"MEAN_MOTION_DOT":-0.0209123,"MEAN_MOTION_DDOT":0},{"OBJECT_NAME":"STARLINK-36670","OBJECT_ID":"2026-033H","EPOCH":"2026-03-17T14:00:01.999872","MEAN_MOTION":15.54483289,"ECCENTRICITY":0.00015172,"INCLINATION":42.999,"RA_OF_ASC_NODE":223.887,"ARG_OF_PERICENTER":279.563,"MEAN_ANOMALY":129.2216,"EPHEMERIS_TYPE":0,"CLASSIFICATION_TYPE":"U","NORAD_CAT_ID":67828,"ELEMENT_SET_NO":999,"REV_AT_EPOCH":593,"BSTAR":-0.032060888,"MEAN_MOTION_DOT":-0.01909238,"MEAN_MOTION_DDOT":0},{"OBJECT_NAME":"STARLINK-36144","OBJECT_ID":"2026-033J","EPOCH":"2026-03-17T14:00:01.999872","MEAN_MOTION":15.53233439,"ECCENTRICITY":0.00015657,"INCLINATION":42.9999,"RA_OF_ASC_NODE":223.9432,"ARG_OF_PERICENTER":263.6991,"MEAN_ANOMALY":122.3299,"EPHEMERIS_TYPE":0,"CLASSIFICATION_TYPE":"U","NORAD_CAT_ID":67829,"ELEMENT_SET_NO":999,"REV_AT_EPOCH":593,"BSTAR":-0.026100635,"MEAN_MOTION_DOT":-0.01524493,"MEAN_MOTION_DDOT":0},{"OBJECT_NAME":"STARLINK-36611","OBJECT_ID":"2026-033K","EPOCH":"2026-03-17T14:00:01.999872","MEAN_MOTION":15.55529771,"ECCENTRICITY":0.00015675,"INCLINATION":42.9992,"RA_OF_ASC_NODE":223.8051,"ARG_OF_PERICENTER":279.1733,"MEAN_ANOMALY":162.4498,"EPHEMERIS_TYPE":0,"CLASSIFICATION_TYPE":"U","NORAD_CAT_ID":67830,"ELEMENT_SET_NO":999,"REV_AT_EPOCH":593,"BSTAR":-0.030819225,"MEAN_MOTION_DOT":-0.01908339,"MEAN_MOTION_DDOT":0},{"OBJECT_NAME":"STARLINK-36661","OBJECT_ID":"2026-033L","EPOCH":"2026-03-17T14:00:01.999872","MEAN_MOTION":15.50544275,"ECCENTRICITY":0.00016027,"INCLINATION":43.0001,"RA_OF_ASC_NODE":224.1379,"ARG_OF_PERICENTER":281.1602,"MEAN_ANOMALY":25.8914,"EPHEMERIS_TYPE":0,"CLASSIFICATION_TYPE":"U","NORAD_CAT_ID":67831,"ELEMENT_SET_NO":999,"REV_AT_EPOCH":593,"BSTAR":0.0008829578,"MEAN_MOTION_DOT":0.00051736,"MEAN_MOTION_DDOT":0},{"OBJECT_NAME":"STARLINK-36662","OBJECT_ID":"2026-033M","EPOCH":"2026-03-17T14:00:01.999872","MEAN_MOTION":15.78712033,"ECCENTRICITY":0.00013942,"INCLINATION":42.9993,"RA_OF_ASC_NODE":222.0313,"ARG_OF_PERICENTER":283.0422,"MEAN_ANOMALY":145.7651,"EPHEMERIS_TYPE":0,"CLASSIFICATION_TYPE":"U","NORAD_CAT_ID":67832,"ELEMENT_SET_NO":999,"REV_AT_EPOCH":593,"BSTAR":-0.007937551,"MEAN_MOTION_DOT":-0.01265822,"MEAN_MOTION_DDOT":0},{"OBJECT_NAME":"STARLINK-36659","OBJECT_ID":"2026-033N","EPOCH":"2026-03-17T14:00:01.999872","MEAN_MOTION":15.60996441,"ECCENTRICITY":0.0001227,"INCLINATION":42.9997,"RA_OF_ASC_NODE":223.5071,"ARG_OF_PERICENTER":273.6978,"MEAN_ANOMALY":288.1954,"EPHEMERIS_TYPE":0,"CLASSIFICATION_TYPE":"U","NORAD_CAT_ID":67833,"ELEMENT_SET_NO":999,"REV_AT_EPOCH":593,"BSTAR":-0.025266339,"MEAN_MOTION_DOT":-0.01925109,"MEAN_MOTION_DDOT":0},{"OBJECT_NAME":"STARLINK-36655","OBJECT_ID":"2026-033P","EPOCH":"2026-03-17T14:00:01.999872","MEAN_MOTION":15.55544402,"ECCENTRICITY":0.00015526,"INCLINATION":42.9993,"RA_OF_ASC_NODE":223.773,"ARG_OF_PERICENTER":279.0851,"MEAN_ANOMALY":175.678,"EPHEMERIS_TYPE":0,"CLASSIFICATION_TYPE":"U","NORAD_CAT_ID":67834,"ELEMENT_SET_NO":999,"REV_AT_EPOCH":593,"BSTAR":-0.030836836,"MEAN_MOTION_DOT":-0.01910209,"MEAN_MOTION_DDOT":0},{"OBJECT_NAME":"STARLINK-36657","OBJECT_ID":"2026-033Q","EPOCH":"2026-03-17T14:00:01.999872","MEAN_MOTION":15.59651294,"ECCENTRICITY":0.00012824,"INCLINATION":42.9995,"RA_OF_ASC_NODE":223.5473,"ARG_OF_PERICENTER":276.075,"MEAN_ANOMALY":269.2427,"EPHEMERIS_TYPE":0,"CLASSIFICATION_TYPE":"U","NORAD_CAT_ID":67835,"ELEMENT_SET_NO":999,"REV_AT_EPOCH":593,"BSTAR":-0.026572364,"MEAN_MOTION_DOT":-0.01922075,"MEAN_MOTION_DDOT":0},{"OBJECT_NAME":"STARLINK-36650","OBJECT_ID":"2026-033R","EPOCH":"2026-03-17T14:00:01.999872","MEAN_MOTION":15.50790424,"ECCENTRICITY":7.921e-5,"INCLINATION":42.9998,"RA_OF_ASC_NODE":224.0138,"ARG_OF_PERICENTER":259.1308,"MEAN_ANOMALY":97.2405,"EPHEMERIS_TYPE":0,"CLASSIFICATION_TYPE":"U","NORAD_CAT_ID":67836,"ELEMENT_SET_NO":999,"REV_AT_EPOCH":593,"BSTAR":-0.0073235172,"MEAN_MOTION_DOT":-0.00411225,"MEAN_MOTION_DDOT":0}]
